[{"OBJECT_NAME":"GEESAT-6 01","OBJECT_ID":"2025-214B","EPOCH":"2026-03-09T22:49:09.909696","MEAN_MOTION":14.83119835,"ECCENTRICITY":0.00123553,"INCLINATION":49.9859,"RA_OF_ASC_NODE":48.2584,"ARG_OF_PERICENTER":212.3001,"MEAN_ANOMALY":147.7181,"EPHEMERIS_TYPE":0,"CLASSIFICATION_TYPE":"U","NORAD_CAT_ID":65713,"ELEMENT_SET_NO":999,"REV_AT_EPOCH":2477,"BSTAR":0.00034422845,"MEAN_MOTION_DOT":2.612e-5,"MEAN_MOTION_DDOT":0},{"OBJECT_NAME":"FENGYUN 1C DEB","OBJECT_ID":"1999-025PX","EPOCH":"2026-03-09T16:04:06.485664","MEAN_MOTION":14.10804989,"ECCENTRICITY":0.03269575,"INCLINATION":98.2718,"RA_OF_ASC_NODE":126.6385,"ARG_OF_PERICENTER":69.088,"MEAN_ANOMALY":54.3136,"EPHEMERIS_TYPE":0,"CLASSIFICATION_TYPE":"U","NORAD_CAT_ID":30070,"ELEMENT_SET_NO":999,"REV_AT_EPOCH":97104,"BSTAR":0.0013765845,"MEAN_MOTION_DOT":4.031e-5,"MEAN_MOTION_DDOT":0}]
